{"type": "FeatureCollection", "features": [ {"type": "Feature", "properties": {"norad_id": 66489, "name": "STARLINK-35696", "group": "last-30-days", "lat": 32.717365426763635, "lon": -161.25207041508835, "alt_km": 402.55011163711333, "timestamp": "2025-12-07T14:37:03.993541+00:00", "meta": {"OBJECT_NAME": "STARLINK-35696", "OBJECT_ID": "2025-263E", "EPOCH": "2025-12-07T00:00:02.000160", "MEAN_MOTION": 15.56098648, "ECCENTRICITY": 0.00016955, "INCLINATION": 42.9998, "RA_OF_ASC_NODE": 158.7503, "ARG_OF_PERICENTER": 267.8647, "MEAN_ANOMALY": 331.5887, "EPHEMERIS_TYPE": 0, "CLASSIFICATION_TYPE": "U", "NORAD_CAT_ID": 66489, "ELEMENT_SET_NO": 999, "REV_AT_EPOCH": 471, "BSTAR": -0.031863487, "MEAN_MOTION_DOT": -0.02040209, "MEAN_MOTION_DDOT": 0}, "tle": {"line1": "1 66489U 25263E   25341.00002315 -.02040209  00000+0 -31863-1 0  9997", "line2": "2 66489  42.9998 158.7503 0001695 267.8647 331.5887 15.56098648  4715"}}, "geometry": {"type": "Point", "coordinates": [-161.25207041508835, 32.717365426763635]}}, {"type": "Feature", "properties": {"norad_id": 66490, "name": "STARLINK-35693", "group": "last-30-days", "lat": 33.64851828930729, "lon": -159.25371070604956, "alt_km": 402.37727626810647, "timestamp": "2025-12-07T14:37:03.993553+00:00", "meta": {"OBJECT_NAME": "STARLINK-35693", "OBJECT_ID": "2025-263F", "EPOCH": "2025-12-07T00:00:02.000160", "MEAN_MOTION": 15.56101679, "ECCENTRICITY": 0.00015186, "INCLINATION": 42.9998, "RA_OF_ASC_NODE": 158.7454, "ARG_OF_PERICENTER": 265.2429, "MEAN_ANOMALY": 336.1263, "EPHEMERIS_TYPE": 0, "CLASSIFICATION_TYPE": "U", "NORAD_CAT_ID": 66490, "ELEMENT_SET_NO": 999, "REV_AT_EPOCH": 471, "BSTAR": -0.031905579, "MEAN_MOTION_DOT": -0.02042709, "MEAN_MOTION_DDOT": 0}, "tle": {"line1": "1 66490U 25263F   25341.00002315 -.02042709  00000+0 -31906-1 0  9994", "line2": "2 66490  42.9998 158.7454 0001518 265.2429 336.1263 15.56101679  4714"}}, "geometry": {"type": "Point", "coordinates": [-159.25371070604956, 33.64851828930729]}}, {"type": "Feature", "properties": {"norad_id": 66491, "name": "STARLINK-35663", "group": "last-30-days", "lat": 35.41129934657472, "lon": -155.12391635433923, "alt_km": 402.13195329545124, "timestamp": "2025-12-07T14:37:03.993563+00:00", "meta": {"OBJECT_NAME": "STARLINK-35663", "OBJECT_ID": "2025-263G", "EPOCH": "2025-12-07T00:00:02.000160", "MEAN_MOTION": 15.56103927, "ECCENTRICITY": 0.00015849, "INCLINATION": 42.9999, "RA_OF_ASC_NODE": 158.7357, "ARG_OF_PERICENTER": 268.6959, "MEAN_ANOMALY": 336.5057, "EPHEMERIS_TYPE": 0, "CLASSIFICATION_TYPE": "U", "NORAD_CAT_ID": 66491, "ELEMENT_SET_NO": 999, "REV_AT_EPOCH": 471, "BSTAR": -0.031949295, "MEAN_MOTION_DOT": -0.02045405, "MEAN_MOTION_DDOT": 0}, "tle": {"line1": "1 66491U 25263G   25341.00002315 -.02045405  00000+0 -31949-1 0  9998", "line2": "2 66491  42.9999 158.7357 0001584 268.6959 336.5057 15.56103927  4719"}}, "geometry": {"type": "Point", "coordinates": [-155.12391635433923, 35.41129934657472]}}, {"type": "Feature", "properties": {"norad_id": 66492, "name": "STARLINK-35673", "group": "last-30-days", "lat": 36.23826641653373, "lon": -152.99303837479667, "alt_km": 402.10867936011164, "timestamp": "2025-12-07T14:37:03.993573+00:00", "meta": {"OBJECT_NAME": "STARLINK-35673", "OBJECT_ID": "2025-263H", "EPOCH": "2025-12-07T00:00:02.000160", "MEAN_MOTION": 15.56101963, "ECCENTRICITY": 0.00016836, "INCLINATION": 42.9999, "RA_OF_ASC_NODE": 158.7308, "ARG_OF_PERICENTER": 267.5226, "MEAN_ANOMALY": 339.5968, "EPHEMERIS_TYPE": 0, "CLASSIFICATION_TYPE": "U", "NORAD_CAT_ID": 66492, "ELEMENT_SET_NO": 999, "REV_AT_EPOCH": 471, "BSTAR": -0.031909687, "MEAN_MOTION_DOT": -0.0204307, "MEAN_MOTION_DDOT": 0}, "tle": {"line1": "1 66492U 25263H   25341.00002315 -.02043070  00000+0 -31910-1 0  9993", "line2": "2 66492  42.9999 158.7308 0001683 267.5226 339.5968 15.56101963  4713"}}, "geometry": {"type": "Point", "coordinates": [-152.99303837479667, 36.23826641653373]}}, {"type": "Feature", "properties": {"norad_id": 66493, "name": "STARLINK-35597", "group": "last-30-days", "lat": 37.02752625779429, "lon": -150.81514784907358, "alt_km": 401.8957147146866, "timestamp": "2025-12-07T14:37:03.993583+00:00", "meta": {"OBJECT_NAME": "STARLINK-35597", "OBJECT_ID": "2025-263J", "EPOCH": "2025-12-07T00:00:02.000160", "MEAN_MOTION": 15.56104323, "ECCENTRICITY": 0.00015472, "INCLINATION": 43, "RA_OF_ASC_NODE": 158.7256, "ARG_OF_PERICENTER": 268.9866, "MEAN_ANOMALY": 340.0497, "EPHEMERIS_TYPE": 0, "CLASSIFICATION_TYPE": "U", "NORAD_CAT_ID": 66493, "ELEMENT_SET_NO": 999, "REV_AT_EPOCH": 471, "BSTAR": -0.031933039, "MEAN_MOTION_DOT": -0.02044478, "MEAN_MOTION_DDOT": 0}, "tle": {"line1": "1 66493U 25263J   25341.00002315 -.02044478  00000+0 -31933-1 0  9992", "line2": "2 66493  43.0000 158.7256 0001547 268.9866 340.0497 15.56104323  4712"}}, "geometry": {"type": "Point", "coordinates": [-150.81514784907358, 37.02752625779429]}}, {"type": "Feature", "properties": {"norad_id": 66494, "name": "STARLINK-35689", "group": "last-30-days", "lat": 34.55039978019843, "lon": -157.2032222355579, "alt_km": 402.36939549752515, "timestamp": "2025-12-07T14:37:03.993593+00:00", "meta": {"OBJECT_NAME": "STARLINK-35689", "OBJECT_ID": "2025-263K", "EPOCH": "2025-12-07T00:00:02.000160", "MEAN_MOTION": 15.56057353, "ECCENTRICITY": 0.00015851, "INCLINATION": 42.9998, "RA_OF_ASC_NODE": 158.7408, "ARG_OF_PERICENTER": 255.8373, "MEAN_ANOMALY": 347.4799, "EPHEMERIS_TYPE": 0, "CLASSIFICATION_TYPE": "U", "NORAD_CAT_ID": 66494, "ELEMENT_SET_NO": 999, "REV_AT_EPOCH": 471, "BSTAR": -0.031094254, "MEAN_MOTION_DOT": -0.01957005, "MEAN_MOTION_DDOT": 0}, "tle": {"line1": "1 66494U 25263K   25341.00002315 -.01957005  00000+0 -31094-1 0  9999", "line2": "2 66494  42.9998 158.7408 0001585 255.8373 347.4799 15.56057353  4712"}}, "geometry": {"type": "Point", "coordinates": [-157.2032222355579, 34.55039978019843]}}, {"type": "Feature", "properties": {"norad_id": 66495, "name": "STARLINK-35832", "group": "last-30-days", "lat": 37.77353894141714, "lon": -148.59865435450018, "alt_km": 401.78471415896183, "timestamp": "2025-12-07T14:37:03.993605+00:00", "meta": {"OBJECT_NAME": "STARLINK-35832", "OBJECT_ID": "2025-263L", "EPOCH": "2025-12-07T00:00:02.000160", "MEAN_MOTION": 15.56102569, "ECCENTRICITY": 0.00015204, "INCLINATION": 42.9998, "RA_OF_ASC_NODE": 158.721, "ARG_OF_PERICENTER": 269.522, "MEAN_ANOMALY": 341.4331, "EPHEMERIS_TYPE": 0, "CLASSIFICATION_TYPE": "U", "NORAD_CAT_ID": 66495, "ELEMENT_SET_NO": 999, "REV_AT_EPOCH": 471, "BSTAR": -0.031948508, "MEAN_MOTION_DOT": -0.02045225, "MEAN_MOTION_DDOT": 0}, "tle": {"line1": "1 66495U 25263L   25341.00002315 -.02045225  00000+0 -31949-1 0  9992", "line2": "2 66495  42.9998 158.7210 0001520 269.5220 341.4331 15.56102569  4712"}}, "geometry": {"type": "Point", "coordinates": [-148.59865435450018, 37.77353894141714]}}, {"type": "Feature", "properties": {"norad_id": 66496, "name": "STARLINK-35909", "group": "last-30-days", "lat": 38.48105049402913, "lon": -146.32640524001695, "alt_km": 401.6403417146603, "timestamp": "2025-12-07T14:37:03.993616+00:00", "meta": {"OBJECT_NAME": "STARLINK-35909", "OBJECT_ID": "2025-263M", "EPOCH": "2025-12-07T00:00:02.000160", "MEAN_MOTION": 15.56101303, "ECCENTRICITY": 0.00015654, "INCLINATION": 43, "RA_OF_ASC_NODE": 158.716, "ARG_OF_PERICENTER": 273.4537, "MEAN_ANOMALY": 339.4174, "EPHEMERIS_TYPE": 0, "CLASSIFICATION_TYPE": "U", "NORAD_CAT_ID": 66496, "ELEMENT_SET_NO": 999, "REV_AT_EPOCH": 471, "BSTAR": -0.031848808, "MEAN_MOTION_DOT": -0.02039465, "MEAN_MOTION_DDOT": 0}, "tle": {"line1": "1 66496U 25263M   25341.00002315 -.02039465  00000+0 -31849-1 0  9991", "line2": "2 66496  43.0000 158.7160 0001565 273.4537 339.4174 15.56101303  4714"}}, "geometry": {"type": "Point", "coordinates": [-146.32640524001695, 38.48105049402913]}}, {"type": "Feature", "properties": {"norad_id": 66497, "name": "STARLINK-35899", "group": "last-30-days", "lat": 39.13839115575052, "lon": -144.0279417461987, "alt_km": 401.6814418437607, "timestamp": "2025-12-07T14:37:03.993627+00:00", "meta": {"OBJECT_NAME": "STARLINK-35899", "OBJECT_ID": "2025-263N", "EPOCH": "2025-12-07T00:00:02.000160", "MEAN_MOTION": 15.56105646, "ECCENTRICITY": 0.00016181, "INCLINATION": 42.9997, "RA_OF_ASC_NODE": 158.7109, "ARG_OF_PERICENTER": 269.8043, "MEAN_ANOMALY": 344.9813, "EPHEMERIS_TYPE": 0, "CLASSIFICATION_TYPE": "U", "NORAD_CAT_ID": 66497, "ELEMENT_SET_NO": 999, "REV_AT_EPOCH": 471, "BSTAR": -0.031989531, "MEAN_MOTION_DOT": -0.02047845, "MEAN_MOTION_DDOT": 0}, "tle": {"line1": "1 66497U 25263N   25341.00002315 -.02047845  00000+0 -31990-1 0  9990", "line2": "2 66497  42.9997 158.7109 0001618 269.8043 344.9813 15.56105646  4716"}}, "geometry": {"type": "Point", "coordinates": [-144.0279417461987, 39.13839115575052]}}, {"type": "Feature", "properties": {"norad_id": 66498, "name": "STARLINK-35907", "group": "last-30-days", "lat": 39.75396741358293, "lon": -141.6721786726787, "alt_km": 401.5250154865953, "timestamp": "2025-12-07T14:37:03.993639+00:00", "meta": {"OBJECT_NAME": "STARLINK-35907", "OBJECT_ID": "2025-263P", "EPOCH": "2025-12-07T00:00:02.000160", "MEAN_MOTION": 15.56101931, "ECCENTRICITY": 0.000158, "INCLINATION": 43, "RA_OF_ASC_NODE": 158.7058, "ARG_OF_PERICENTER": 272.6282, "MEAN_ANOMALY": 344.0775, "EPHEMERIS_TYPE": 0, "CLASSIFICATION_TYPE": "U", "NORAD_CAT_ID": 66498, "ELEMENT_SET_NO": 999, "REV_AT_EPOCH": 471, "BSTAR": -0.031889878, "MEAN_MOTION_DOT": -0.02041867, "MEAN_MOTION_DDOT": 0}, "tle": {"line1": "1 66498U 25263P   25341.00002315 -.02041867  00000+0 -31890-1 0  9998", "line2": "2 66498  43.0000 158.7058 0001580 272.6282 344.0775 15.56101931  4713"}}, "geometry": {"type": "Point", "coordinates": [-141.6721786726787, 39.75396741358293]}}]}